{"type": "FeatureCollection", "features": [ {"type": "Feature", "properties": {"norad_id": 61183, "name": "GSAT0226 (GALILEO 31)", "group": "galileo", "lat": 53.61153245609365, "lon": -63.55670410722875, "alt_km": 23212.684782603887, "timestamp": "2025-12-27T22:26:48.866883+00:00", "meta": {"OBJECT_NAME": "GSAT0226 (GALILEO 31)", "OBJECT_ID": "2024-167B", "EPOCH": "2025-12-27T12:27:19.857312", "MEAN_MOTION": 1.70473469, "ECCENTRICITY": 0.0001323, "INCLINATION": 55.2354, "RA_OF_ASC_NODE": 226.0305, "ARG_OF_PERICENTER": 110.2873, "MEAN_ANOMALY": 72.8177, "EPHEMERIS_TYPE": 0, "CLASSIFICATION_TYPE": "U", "NORAD_CAT_ID": 61183, "ELEMENT_SET_NO": 999, "REV_AT_EPOCH": 792, "BSTAR": 0, "MEAN_MOTION_DOT": 7.2e-07, "MEAN_MOTION_DDOT": 0}, "tle": {"line1": "1 61183U 24167B   25361.51897983  .00000072  00000+0  00000+0 0  9993", "line2": "2 61183  55.2354 226.0305 0001323 110.2873  72.8177  1.70473469  7925"}}, "geometry": {"type": "Point", "coordinates": [-63.55670410722875, 53.61153245609365]}}, {"type": "Feature", "properties": {"norad_id": 67160, "name": "GALILEO A", "group": "galileo", "lat": -21.158433819640504, "lon": 90.79363635760085, "alt_km": 22949.295194772156, "timestamp": "2025-12-27T22:26:48.866894+00:00", "meta": {"OBJECT_NAME": "GALILEO A", "OBJECT_ID": "2025-302A", "EPOCH": "2025-12-18T03:30:19.486368", "MEAN_MOTION": 1.72906186, "ECCENTRICITY": 0.00084238, "INCLINATION": 54.2406, "RA_OF_ASC_NODE": 107.2544, "ARG_OF_PERICENTER": 237.6458, "MEAN_ANOMALY": 122.2317, "EPHEMERIS_TYPE": 0, "CLASSIFICATION_TYPE": "U", "NORAD_CAT_ID": 67160, "ELEMENT_SET_NO": 999, "REV_AT_EPOCH": 2, "BSTAR": 0, "MEAN_MOTION_DOT": -7e-08, "MEAN_MOTION_DDOT": 0}, "tle": {"line1": "1 67160U 25302A   25352.14605887 -.00000007  00000+0  00000+0 0  9994", "line2": "2 67160  54.2406 107.2544 0008423 237.6458 122.2317  1.72906186    28"}}, "geometry": {"type": "Point", "coordinates": [90.79363635760085, -21.158433819640504]}}, {"type": "Feature", "properties": {"norad_id": 67161, "name": "GALILEO B", "group": "galileo", "lat": -19.205525472295705, "lon": 92.40935943590448, "alt_km": 22936.577171824374, "timestamp": "2025-12-27T22:26:48.866906+00:00", "meta": {"OBJECT_NAME": "GALILEO B", "OBJECT_ID": "2025-302B", "EPOCH": "2025-12-26T19:37:10.068960", "MEAN_MOTION": 1.72972318, "ECCENTRICITY": 0.00047769, "INCLINATION": 54.2304, "RA_OF_ASC_NODE": 106.9693, "ARG_OF_PERICENTER": 256.4913, "MEAN_ANOMALY": 103.4489, "EPHEMERIS_TYPE": 0, "CLASSIFICATION_TYPE": "U", "NORAD_CAT_ID": 67161, "ELEMENT_SET_NO": 999, "REV_AT_EPOCH": 18, "BSTAR": 0, "MEAN_MOTION_DOT": 1.6e-07, "MEAN_MOTION_DDOT": 0}, "tle": {"line1": "1 67161U 25302B   25360.81747765  .00000016  00000+0  00000+0 0  9999", "line2": "2 67161  54.2304 106.9693 0004776 256.4913 103.4489  1.72972318   187"}}, "geometry": {"type": "Point", "coordinates": [92.40935943590448, -19.205525472295705]}}]}